[{"OBJECT_NAME":"ONEWEB-0012","OBJECT_ID":"2019-010A","EPOCH":"2026-03-04T12:42:16.848288","MEAN_MOTION":13.16593025,"ECCENTRICITY":0.0001166,"INCLINATION":87.8995,"RA_OF_ASC_NODE":249.6044,"ARG_OF_PERICENTER":95.0023,"MEAN_ANOMALY":265.1241,"EPHEMERIS_TYPE":0,"CLASSIFICATION_TYPE":"U","NORAD_CAT_ID":44057,"ELEMENT_SET_NO":999,"REV_AT_EPOCH":33779,"BSTAR":-6.5475e-5,"MEAN_MOTION_DOT":-1.2e-7,"MEAN_MOTION_DDOT":0},{"OBJECT_NAME":"ONEWEB-0010","OBJECT_ID":"2019-010B","EPOCH":"2026-03-04T11:29:19.413024","MEAN_MOTION":13.16592268,"ECCENTRICITY":0.00018859,"INCLINATION":87.9001,"RA_OF_ASC_NODE":249.61,"ARG_OF_PERICENTER":104.5266,"MEAN_ANOMALY":255.6074,"EPHEMERIS_TYPE":0,"CLASSIFICATION_TYPE":"U","NORAD_CAT_ID":44058,"ELEMENT_SET_NO":999,"REV_AT_EPOCH":33783,"BSTAR":-0.00014065005,"MEAN_MOTION_DOT":-4.1e-7,"MEAN_MOTION_DDOT":0},{"OBJECT_NAME":"ONEWEB-0008","OBJECT_ID":"2019-010C","EPOCH":"2026-03-04T12:05:48.432192","MEAN_MOTION":13.16593954,"ECCENTRICITY":0.00016714,"INCLINATION":87.8999,"RA_OF_ASC_NODE":249.6024,"ARG_OF_PERICENTER":86.9306,"MEAN_ANOMALY":273.2016,"EPHEMERIS_TYPE":0,"CLASSIFICATION_TYPE":"U","NORAD_CAT_ID":44059,"ELEMENT_SET_NO":999,"REV_AT_EPOCH":33795,"BSTAR":0.00028807611,"MEAN_MOTION_DOT":1.23e-6,"MEAN_MOTION_DDOT":0},{"OBJECT_NAME":"ONEWEB-0007","OBJECT_ID":"2019-010D","EPOCH":"2026-03-04T03:38:31.753824","MEAN_MOTION":13.15547304,"ECCENTRICITY":0.00014342,"INCLINATION":87.8947,"RA_OF_ASC_NODE":280.1968,"ARG_OF_PERICENTER":99.5915,"MEAN_ANOMALY":260.5377,"EPHEMERIS_TYPE":0,"CLASSIFICATION_TYPE":"U","NORAD_CAT_ID":44060,"ELEMENT_SET_NO":999,"REV_AT_EPOCH":33756,"BSTAR":-0.00013371931,"MEAN_MOTION_DOT":-3.8e-7,"MEAN_MOTION_DDOT":0},{"OBJECT_NAME":"ONEWEB-0006","OBJECT_ID":"2019-010E","EPOCH":"2026-03-04T03:44:12.888672","MEAN_MOTION":13.15546789,"ECCENTRICITY":0.00016684,"INCLINATION":87.8956,"RA_OF_ASC_NODE":280.1495,"ARG_OF_PERICENTER":97.1683,"MEAN_ANOMALY":262.9637,"EPHEMERIS_TYPE":0,"CLASSIFICATION_TYPE":"U","NORAD_CAT_ID":44061,"ELEMENT_SET_NO":999,"REV_AT_EPOCH":33761,"BSTAR":-0.00026399519,"MEAN_MOTION_DOT":-8.7e-7,"MEAN_MOTION_DDOT":0},{"OBJECT_NAME":"ONEWEB-0011","OBJECT_ID":"2019-010F","EPOCH":"2026-03-04T12:06:12.263040","MEAN_MOTION":13.15551179,"ECCENTRICITY":0.00017643,"INCLINATION":87.8954,"RA_OF_ASC_NODE":280.0882,"ARG_OF_PERICENTER":88.0038,"MEAN_ANOMALY":272.1295,"EPHEMERIS_TYPE":0,"CLASSIFICATION_TYPE":"U","NORAD_CAT_ID":44062,"ELEMENT_SET_NO":999,"REV_AT_EPOCH":33765,"BSTAR":0.00040092357,"MEAN_MOTION_DOT":1.64e-6,"MEAN_MOTION_DDOT":0},{"OBJECT_NAME":"ONEWEB-0013","OBJECT_ID":"2020-008A","EPOCH":"2026-03-04T11:41:01.508928","MEAN_MOTION":13.09444726,"ECCENTRICITY":8.953e-5,"INCLINATION":87.8429,"RA_OF_ASC_NODE":73.963,"ARG_OF_PERICENTER":77.7826,"MEAN_ANOMALY":282.3401,"EPHEMERIS_TYPE":0,"CLASSIFICATION_TYPE":"U","NORAD_CAT_ID":45131,"ELEMENT_SET_NO":999,"REV_AT_EPOCH":29236,"BSTAR":0.0014026524,"MEAN_MOTION_DOT":4.96e-6,"MEAN_MOTION_DDOT":0},{"OBJECT_NAME":"ONEWEB-0017","OBJECT_ID":"2020-008B","EPOCH":"2026-03-04T11:11:28.075488","MEAN_MOTION":13.10372902,"ECCENTRICITY":0.00020161,"INCLINATION":87.8764,"RA_OF_ASC_NODE":57.1236,"ARG_OF_PERICENTER":92.5553,"MEAN_ANOMALY":267.5805,"EPHEMERIS_TYPE":0,"CLASSIFICATION_TYPE":"U","NORAD_CAT_ID":45132,"ELEMENT_SET_NO":999,"REV_AT_EPOCH":29423,"BSTAR":-0.0018023554,"MEAN_MOTION_DOT":-6.16e-6,"MEAN_MOTION_DDOT":0},{"OBJECT_NAME":"ONEWEB-0020","OBJECT_ID":"2020-008C","EPOCH":"2026-03-04T12:18:26.220672","MEAN_MOTION":13.10370918,"ECCENTRICITY":0.000186,"INCLINATION":87.8768,"RA_OF_ASC_NODE":57.1045,"ARG_OF_PERICENTER":89.1785,"MEAN_ANOMALY":270.9555,"EPHEMERIS_TYPE":0,"CLASSIFICATION_TYPE":"U","NORAD_CAT_ID":45133,"ELEMENT_SET_NO":999,"REV_AT_EPOCH":29463,"BSTAR":0.0016267,"MEAN_MOTION_DOT":5.81e-6,"MEAN_MOTION_DDOT":0},{"OBJECT_NAME":"ONEWEB-0021","OBJECT_ID":"2020-008D","EPOCH":"2026-03-04T10:49:57.751968","MEAN_MOTION":13.10369541,"ECCENTRICITY":0.00017695,"INCLINATION":87.8758,"RA_OF_ASC_NODE":57.1416,"ARG_OF_PERICENTER":90.012,"MEAN_ANOMALY":270.121,"EPHEMERIS_TYPE":0,"CLASSIFICATION_TYPE":"U","NORAD_CAT_ID":45134,"ELEMENT_SET_NO":999,"REV_AT_EPOCH":29493,"BSTAR":-0.0003395513,"MEAN_MOTION_DOT":-1.06e-6,"MEAN_MOTION_DDOT":0},{"OBJECT_NAME":"ONEWEB-0023","OBJECT_ID":"2020-008F","EPOCH":"2026-03-04T11:05:29.253696","MEAN_MOTION":13.1037237,"ECCENTRICITY":0.0001665,"INCLINATION":87.876,"RA_OF_ASC_NODE":57.1188,"ARG_OF_PERICENTER":85.5709,"MEAN_ANOMALY":274.5609,"EPHEMERIS_TYPE":0,"CLASSIFICATION_TYPE":"U","NORAD_CAT_ID":45136,"ELEMENT_SET_NO":999,"REV_AT_EPOCH":29436,"BSTAR":-0.0017008034,"MEAN_MOTION_DOT":-5.81e-6,"MEAN_MOTION_DDOT":0},{"OBJECT_NAME":"ONEWEB-0024","OBJECT_ID":"2020-008G","EPOCH":"2026-03-04T17:45:53.770752","MEAN_MOTION":13.10370351,"ECCENTRICITY":0.0001853,"INCLINATION":87.8774,"RA_OF_ASC_NODE":57.0479,"ARG_OF_PERICENTER":88.456,"MEAN_ANOMALY":271.678,"EPHEMERIS_TYPE":0,"CLASSIFICATION_TYPE":"U","NORAD_CAT_ID":45137,"ELEMENT_SET_NO":999,"REV_AT_EPOCH":29456,"BSTAR":0.0017346,"MEAN_MOTION_DOT":6.18e-6,"MEAN_MOTION_DDOT":0},{"OBJECT_NAME":"ONEWEB-0025","OBJECT_ID":"2020-008H","EPOCH":"2026-03-04T10:40:00.746976","MEAN_MOTION":13.10873169,"ECCENTRICITY":0.00014925,"INCLINATION":87.8768,"RA_OF_ASC_NODE":57.0998,"ARG_OF_PERICENTER":90.3474,"MEAN_ANOMALY":269.7824,"EPHEMERIS_TYPE":0,"CLASSIFICATION_TYPE":"U","NORAD_CAT_ID":45138,"ELEMENT_SET_NO":999,"REV_AT_EPOCH":29485,"BSTAR":0.00057087633,"MEAN_MOTION_DOT":2.13e-6,"MEAN_MOTION_DDOT":0},{"OBJECT_NAME":"ONEWEB-0026","OBJECT_ID":"2020-008J","EPOCH":"2026-03-04T11:30:20.096928","MEAN_MOTION":13.11413979,"ECCENTRICITY":0.00020143,"INCLINATION":87.8853,"RA_OF_ASC_NODE":41.8846,"ARG_OF_PERICENTER":85.6203,"MEAN_ANOMALY":274.5155,"EPHEMERIS_TYPE":0,"CLASSIFICATION_TYPE":"U","NORAD_CAT_ID":45139,"ELEMENT_SET_NO":999,"REV_AT_EPOCH":29738,"BSTAR":0.0005340474,"MEAN_MOTION_DOT":2.02e-6,"MEAN_MOTION_DDOT":0},{"OBJECT_NAME":"ONEWEB-0028","OBJECT_ID":"2020-008K","EPOCH":"2026-03-04T15:57:38.914272","MEAN_MOTION":13.11417731,"ECCENTRICITY":0.0001204,"INCLINATION":87.8845,"RA_OF_ASC_NODE":41.8565,"ARG_OF_PERICENTER":74.2715,"MEAN_ANOMALY":285.8546,"EPHEMERIS_TYPE":0,"CLASSIFICATION_TYPE":"U","NORAD_CAT_ID":45140,"ELEMENT_SET_NO":999,"REV_AT_EPOCH":29492,"BSTAR":-0.0015865,"MEAN_MOTION_DOT":-5.5e-6,"MEAN_MOTION_DDOT":0},{"OBJECT_NAME":"ONEWEB-0032","OBJECT_ID":"2020-008L","EPOCH":"2026-03-04T11:13:50.353824","MEAN_MOTION":13.10372017,"ECCENTRICITY":0.00014528,"INCLINATION":87.8764,"RA_OF_ASC_NODE":57.1245,"ARG_OF_PERICENTER":80.2513,"MEAN_ANOMALY":279.8778,"EPHEMERIS_TYPE":0,"CLASSIFICATION_TYPE":"U","NORAD_CAT_ID":45141,"ELEMENT_SET_NO":999,"REV_AT_EPOCH":29458,"BSTAR":-0.0018069478,"MEAN_MOTION_DOT":-6.18e-6,"MEAN_MOTION_DDOT":0},{"OBJECT_NAME":"ONEWEB-0033","OBJECT_ID":"2020-008M","EPOCH":"2026-03-04T10:38:01.312800","MEAN_MOTION":13.10371054,"ECCENTRICITY":0.00023142,"INCLINATION":87.8759,"RA_OF_ASC_NODE":57.1388,"ARG_OF_PERICENTER":95.4429,"MEAN_ANOMALY":264.6962,"EPHEMERIS_TYPE":0,"CLASSIFICATION_TYPE":"U","NORAD_CAT_ID":45142,"ELEMENT_SET_NO":999,"REV_AT_EPOCH":29449,"BSTAR":0.00084420273,"MEAN_MOTION_DOT":3.07e-6,"MEAN_MOTION_DDOT":0}]
