ONEWEB-0012             
1 44057U 19010A   26063.52936167 -.00000012  00000+0 -65475-4 0  9992
2 44057  87.8995 249.6044 0001166  95.0023 265.1241 13.16593025337795
ONEWEB-0010             
1 44058U 19010B   26063.47869691 -.00000041  00000+0 -14065-3 0  9994
2 44058  87.9001 249.6100 0001885 104.5266 255.6074 13.16592268337832
ONEWEB-0008             
1 44059U 19010C   26063.50403278  .00000123  00000+0  28808-3 0  9993
2 44059  87.8999 249.6024 0001671  86.9306 273.2016 13.16593954337952
ONEWEB-0007             
1 44060U 19010D   26063.15175641 -.00000038  00000+0 -13372-3 0  9993
2 44060  87.8947 280.1968 0001434  99.5915 260.5377 13.15547304337560
ONEWEB-0006             
1 44061U 19010E   26063.15570473 -.00000087  00000+0 -26400-3 0  9996
2 44061  87.8956 280.1495 0001668  97.1683 262.9637 13.15546789337618
ONEWEB-0011             
1 44062U 19010F   26063.50430860  .00000164  00000+0  40092-3 0  9998
2 44062  87.8954 280.0882 0001764  88.0038 272.1295 13.15551179337652
ONEWEB-0013             
1 45131U 20008A   26063.48682302  .00000496  00000+0  14027-2 0  9998
2 45131  87.8429  73.9630 0000895  77.7826 282.3401 13.09444726292363
ONEWEB-0017             
1 45132U 20008B   26063.46629717 -.00000616  00000+0 -18024-2 0  9995
2 45132  87.8764  57.1236 0002016  92.5553 267.5805 13.10372902294230
ONEWEB-0020             
1 45133U 20008C   26063.51280348  .00000581  00000+0  16267-2 0  9991
2 45133  87.8768  57.1045 0001860  89.1785 270.9555 13.10370918294637
ONEWEB-0021             
1 45134U 20008D   26063.45136287 -.00000106  00000+0 -33955-3 0  9996
2 45134  87.8758  57.1416 0001769  90.0120 270.1210 13.10369541294934
ONEWEB-0023             
1 45136U 20008F   26063.46214414 -.00000581  00000+0 -17008-2 0  9995
2 45136  87.8760  57.1188 0001665  85.5709 274.5609 13.10372370294363
ONEWEB-0024             
1 45137U 20008G   26063.74020568  .00000618  00000+0  17346-2 0  9996
2 45137  87.8774  57.0479 0001853  88.4560 271.6780 13.10370351294564
ONEWEB-0025             
1 45138U 20008H   26063.44445309  .00000213  00000+0  57088-3 0  9997
2 45138  87.8768  57.0998 0001492  90.3474 269.7824 13.10873169294853
ONEWEB-0026             
1 45139U 20008J   26063.47939927  .00000202  00000+0  53405-3 0  9992
2 45139  87.8853  41.8846 0002014  85.6203 274.5155 13.11413979297382
ONEWEB-0028             
1 45140U 20008K   26063.66503373 -.00000550  00000+0 -15865-2 0  9992
2 45140  87.8845  41.8565 0001204  74.2715 285.8546 13.11417731294921
ONEWEB-0032             
1 45141U 20008L   26063.46794391 -.00000618  00000+0 -18069-2 0  9997
2 45141  87.8764  57.1245 0001452  80.2513 279.8778 13.10372017294583
ONEWEB-0033             
1 45142U 20008M   26063.44307075  .00000307  00000+0  84420-3 0  9993
2 45142  87.8759  57.1388 0002314  95.4429 264.6962 13.10371054294495
